{"type":"Feature","properties":{},"geometry":{"type":"LineString","coordinates":[[-66.15698,-17.37706],[-66.15698,-17.37702],[-66.15698,-17.37695],[-66.15697,-17.37642],[-66.15697,-17.37637],[-66.15696,-17.37631],[-66.15694,-17.37551],[-66.15693,-17.37511],[-66.15692,-17.37506],[-66.15692,-17.37496],[-66.15692,-17.37488],[-66.15692,-17.3748],[-66.15691,-17.37452],[-66.15691,-17.37424],[-66.1569,-17.37394],[-66.15689,-17.37388],[-66.15689,-17.37381],[-66.15688,-17.37343],[-66.15688,-17.37317],[-66.15688,-17.37317],[-66.15681,-17.37316],[-66.15675,-17.37314],[-66.15671,-17.37312],[-66.15667,-17.37309],[-66.15663,-17.37305],[-66.15661,-17.37302],[-66.15658,-17.37298],[-66.15656,-17.37294],[-66.15655,-17.37289],[-66.15655,-17.37284],[-66.15657,-17.37278],[-66.1566,-17.37273],[-66.15664,-17.37269],[-66.15668,-17.37265],[-66.15673,-17.37262],[-66.15677,-17.37261],[-66.15681,-17.3726],[-66.15685,-17.3726],[-66.15685,-17.3726],[-66.15685,-17.3725],[-66.15682,-17.37216],[-66.1568,-17.37196],[-66.1568,-17.37193],[-66.15679,-17.37187],[-66.15679,-17.37182],[-66.15679,-17.37179],[-66.15675,-17.37091],[-66.15675,-17.37088],[-66.15675,-17.37083],[-66.15674,-17.37077],[-66.15674,-17.37075],[-66.15673,-17.37061],[-66.1567,-17.37015],[-66.1567,-17.37015]]}}