{
  "type": "Feature",
  "properties": {},
  "geometry": {
    "type": "Polygon",
    "coordinates": [
      [
        [
          -66.161985,
          -17.365425
        ],
        [
          -66.162904,
          -17.366712
        ],
        [
          -66.163462,
          -17.368351
        ],
        [
          -66.162389,
          -17.372365
        ],
        [
          -66.15711,
          -17.37261
        ],
        [
          -66.156681,
          -17.366835
        ],
        [
          -66.157969,
          -17.366221
        ],
        [
          -66.160415,
          -17.365607
        ],
        [
          -66.161985,
          -17.365425
        ]
      ]
    ]
  }
}