{
  "type": "Feature",
  "properties": {},
  "geometry": {
    "type": "Polygon",
    "coordinates": [
      [
        [
          -66.155994,
          -17.366917
        ],
        [
          -66.156681,
          -17.372651
        ],
        [
          -66.14312,
          -17.373634
        ],
        [
          -66.142648,
          -17.370603
        ],
        [
          -66.143806,
          -17.369539
        ],
        [
          -66.149514,
          -17.367491
        ],
        [
          -66.155994,
          -17.366917
        ]
      ]
    ]
  }
}